[
    {
        "Altitude(m)": 558749.6996398616,
        "Argument of Periapsis(deg)": 0.019868973332140504,
        "Eccentricity": 0.0,
        "Inclination(deg)": 53.0,
        "Latitude(deg)": 48.12846584479362,
        "Longitude(deg)": 104.3487254855352,
        "Mean Anomaly(deg)": 68.45667860273278,
        "RAAN(deg)": 149.97043010558406,
        "Satellite Name": "Starlink Shell 1 662",
        "Satellite Number": 662,
        "Semi-Major Axis(m)": 6931778.249405717,
        "Time(s)": 570
    },
    {
        "Altitude(m)": 558811.9632436597,
        "Argument of Periapsis(deg)": 0.02021755181165174,
        "Eccentricity": 0.0,
        "Inclination(deg)": 53.0,
        "Latitude(deg)": 48.400302954558704,
        "Longitude(deg)": 105.15400487526834,
        "Mean Anomaly(deg)": 69.08350980628947,
        "RAAN(deg)": 149.9699113355066,
        "Satellite Name": "Starlink Shell 1 662",
        "Satellite Number": 662,
        "Semi-Major Axis(m)": 6931778.249405717,
        "Time(s)": 580
    },
    {
        "Altitude(m)": 558872.8162970315,
        "Argument of Periapsis(deg)": 0.020566130291162974,
        "Eccentricity": 0.0,
        "Inclination(deg)": 53.0,
        "Latitude(deg)": 48.66583478957608,
        "Longitude(deg)": 105.96824000935688,
        "Mean Anomaly(deg)": 69.7103410098462,
        "RAAN(deg)": 149.9693925654291,
        "Satellite Name": "Starlink Shell 1 662",
        "Satellite Number": 662,
        "Semi-Major Axis(m)": 6931778.249405717,
        "Time(s)": 590
    },
    {
        "Altitude(m)": 558932.2215488518,
        "Argument of Periapsis(deg)": 0.020914708770674213,
        "Eccentricity": 0.0,
        "Inclination(deg)": 53.0,
        "Latitude(deg)": 48.924936724336796,
        "Longitude(deg)": 106.7913935235407,
        "Mean Anomaly(deg)": 70.3371722134029,
        "RAAN(deg)": 149.96887379535164,
        "Satellite Name": "Starlink Shell 1 662",
        "Satellite Number": 662,
        "Semi-Major Axis(m)": 6931778.249405717,
        "Time(s)": 600
    },
    {
        "Altitude(m)": 558990.1426845281,
        "Argument of Periapsis(deg)": 0.021263287250185448,
        "Eccentricity": 0.0,
        "Inclination(deg)": 53.0,
        "Latitude(deg)": 49.17748406807107,
        "Longitude(deg)": 107.62341533048723,
        "Mean Anomaly(deg)": 70.96400341695964,
        "RAAN(deg)": 149.96835502527415,
        "Satellite Name": "Starlink Shell 1 662",
        "Satellite Number": 662,
        "Semi-Major Axis(m)": 6931778.249405717,
        "Time(s)": 610
    },
    {
        "Altitude(m)": 559046.544343912,
        "Argument of Periapsis(deg)": 0.021611865729696686,
        "Eccentricity": 0.0,
        "Inclination(deg)": 53.0,
        "Latitude(deg)": 49.423352259619755,
        "Longitude(deg)": 108.46424260753389,
        "Mean Anomaly(deg)": 71.59083462051633,
        "RAAN(deg)": 149.9678362551967,
        "Satellite Name": "Starlink Shell 1 662",
        "Satellite Number": 662,
        "Semi-Major Axis(m)": 6931778.249405717,
        "Time(s)": 620
    },
    {
        "Altitude(m)": 559101.392138708,
        "Argument of Periapsis(deg)": 0.02196044420920792,
        "Eccentricity": 0.0,
        "Inclination(deg)": 53.0,
        "Latitude(deg)": 49.662417073329706,
        "Longitude(deg)": 109.31379812437794,
        "Mean Anomaly(deg)": 72.21766582407305,
        "RAAN(deg)": 149.96731748511922,
        "Satellite Name": "Starlink Shell 1 662",
        "Satellite Number": 662,
        "Semi-Major Axis(m)": 6931778.249405717,
        "Time(s)": 630
    },
    {
        "Altitude(m)": 559154.6526694108,
        "Argument of Periapsis(deg)": 0.02230902268871916,
        "Eccentricity": 0.0,
        "Inclination(deg)": 53.0,
        "Latitude(deg)": 49.89455483571862,
        "Longitude(deg)": 110.17199111785837,
        "Mean Anomaly(deg)": 72.84449702762976,
        "RAAN(deg)": 149.96679871504176,
        "Satellite Name": "Starlink Shell 1 662",
        "Satellite Number": 662,
        "Semi-Major Axis(m)": 6931778.249405717,
        "Time(s)": 640
    },
    {
        "Altitude(m)": 559206.2935417456,
        "Argument of Periapsis(deg)": 0.022657601168230398,
        "Eccentricity": 0.0,
        "Inclination(deg)": 53.0,
        "Latitude(deg)": 50.11964265255828,
        "Longitude(deg)": 111.03871567581447,
        "Mean Anomaly(deg)": 73.47132823118645,
        "RAAN(deg)": 149.96627994496427,
        "Satellite Name": "Starlink Shell 1 662",
        "Satellite Number": 662,
        "Semi-Major Axis(m)": 6931778.249405717,
        "Time(s)": 650
    },
    {
        "Altitude(m)": 559256.2833825788,
        "Argument of Periapsis(deg)": 0.023006179647741636,
        "Eccentricity": 0.0,
        "Inclination(deg)": 53.0,
        "Latitude(deg)": 50.337558645915806,
        "Longitude(deg)": 111.91385083751543,
        "Mean Anomaly(deg)": 74.09815943474322,
        "RAAN(deg)": 149.9657611748868,
        "Satellite Name": "Starlink Shell 1 662",
        "Satellite Number": 662,
        "Semi-Major Axis(m)": 6931778.249405717,
        "Time(s)": 660
    },
    {
        "Altitude(m)": 559304.5918553384,
        "Argument of Periapsis(deg)": 0.023354758127252868,
        "Eccentricity": 0.0,
        "Inclination(deg)": 53.0,
        "Latitude(deg)": 50.5481822005841,
        "Longitude(deg)": 112.79726073485716,
        "Mean Anomaly(deg)": 74.72499063829994,
        "RAAN(deg)": 149.96524240480932,
        "Satellite Name": "Starlink Shell 1 662",
        "Satellite Number": 662,
        "Semi-Major Axis(m)": 6931778.249405717,
        "Time(s)": 670
    },
    {
        "Altitude(m)": 559351.1896749021,
        "Argument of Periapsis(deg)": 0.023703336606764106,
        "Eccentricity": 0.0,
        "Inclination(deg)": 53.0,
        "Latitude(deg)": 50.75139421921761,
        "Longitude(deg)": 113.68879326667809,
        "Mean Anomaly(deg)": 75.35182184185663,
        "RAAN(deg)": 149.96472363473185,
        "Satellite Name": "Starlink Shell 1 662",
        "Satellite Number": 662,
        "Semi-Major Axis(m)": 6931778.249405717,
        "Time(s)": 680
    },
    {
        "Altitude(m)": 559396.0486219716,
        "Argument of Periapsis(deg)": 0.024051915086275345,
        "Eccentricity": 0.0,
        "Inclination(deg)": 53.0,
        "Latitude(deg)": 50.94707738536955,
        "Longitude(deg)": 114.58828033717141,
        "Mean Anomaly(deg)": 75.97865304541332,
        "RAAN(deg)": 149.9642048646544,
        "Satellite Name": "Starlink Shell 1 662",
        "Satellite Number": 662,
        "Semi-Major Axis(m)": 6931778.249405717,
        "Time(s)": 690
    },
    {
        "Altitude(m)": 559439.1415569034,
        "Argument of Periapsis(deg)": 0.024400493565786583,
        "Eccentricity": 0.0,
        "Inclination(deg)": 53.0,
        "Latitude(deg)": 51.135116433509424,
        "Longitude(deg)": 115.49553815067769,
        "Mean Anomaly(deg)": 76.60548424897004,
        "RAAN(deg)": 149.9636860945769,
        "Satellite Name": "Starlink Shell 1 662",
        "Satellite Number": 662,
        "Semi-Major Axis(m)": 6931778.249405717,
        "Time(s)": 700
    },
    {
        "Altitude(m)": 559480.4424330051,
        "Argument of Periapsis(deg)": 0.024749072045297815,
        "Eccentricity": 0.0,
        "Inclination(deg)": 53.0,
        "Latitude(deg)": 51.31539842498004,
        "Longitude(deg)": 116.41036605500287,
        "Mean Anomaly(deg)": 77.23231545252678,
        "RAAN(deg)": 149.96316732449944,
        "Satellite Name": "Starlink Shell 1 662",
        "Satellite Number": 662,
        "Semi-Major Axis(m)": 6931778.249405717,
        "Time(s)": 710
    },
    {
        "Altitude(m)": 559519.9263093035,
        "Argument of Periapsis(deg)": 0.025097650524809053,
        "Eccentricity": 0.0,
        "Inclination(deg)": 53.0,
        "Latitude(deg)": 51.48781302873377,
        "Longitude(deg)": 117.33254696382582,
        "Mean Anomaly(deg)": 77.85914665608347,
        "RAAN(deg)": 149.96264855442197,
        "Satellite Name": "Starlink Shell 1 662",
        "Satellite Number": 662,
        "Semi-Major Axis(m)": 6931778.249405717,
        "Time(s)": 720
    },
    {
        "Altitude(m)": 559557.569362742,
        "Argument of Periapsis(deg)": 0.02544622900432029,
        "Eccentricity": 0.0,
        "Inclination(deg)": 53.0,
        "Latitude(deg)": 51.652252805574236,
        "Longitude(deg)": 118.26184784983597,
        "Mean Anomaly(deg)": 78.48597785964019,
        "RAAN(deg)": 149.96212978434448,
        "Satellite Name": "Starlink Shell 1 662",
        "Satellite Number": 662,
        "Semi-Major Axis(m)": 6931778.249405717,
        "Time(s)": 730
    },
    {
        "Altitude(m)": 559593.3488998298,
        "Argument of Periapsis(deg)": 0.02579480748383153,
        "Eccentricity": 0.0,
        "Inclination(deg)": 53.0,
        "Latitude(deg)": 51.808613494522795,
        "Longitude(deg)": 119.19801879987152,
        "Mean Anomaly(deg)": 79.1128090631969,
        "RAAN(deg)": 149.96161101426702,
        "Satellite Name": "Starlink Shell 1 662",
        "Satellite Number": 662,
        "Semi-Major Axis(m)": 6931778.249405717,
        "Time(s)": 740
    },
    {
        "Altitude(m)": 559627.2433677496,
        "Argument of Periapsis(deg)": 0.026143385963342765,
        "Eccentricity": 0.0,
        "Inclination(deg)": 53.0,
        "Latitude(deg)": 51.95679429982304,
        "Longitude(deg)": 120.14079366150024,
        "Mean Anomaly(deg)": 79.73964026675363,
        "RAAN(deg)": 149.96109224418956,
        "Satellite Name": "Starlink Shell 1 662",
        "Satellite Number": 662,
        "Semi-Major Axis(m)": 6931778.249405717,
        "Time(s)": 750
    }
]